<?xml version="1.0" encoding="UTF-8"?>
<gpx version="1.1" creator="WindTraceRide" xmlns="http://www.topografix.com/GPX/1/1">
  <trk><name>Tahoe West Shore</name><trkseg>
    <trkpt lat="39.1399633" lon="-120.1539148"><ele>1900.78</ele></trkpt>
    <trkpt lat="39.1398999" lon="-120.1538189"><ele>1900.91</ele></trkpt>
    <trkpt lat="39.1398635" lon="-120.1537867"><ele>1900.96</ele></trkpt>
    <trkpt lat="39.1398198" lon="-120.1537760"><ele>1901.00</ele></trkpt>
    <trkpt lat="39.1397792" lon="-120.1537894"><ele>1900.99</ele></trkpt>
    <trkpt lat="39.1397418" lon="-120.1538055"><ele>1900.98</ele></trkpt>
    <trkpt lat="39.1396919" lon="-120.1538350"><ele>1900.95</ele></trkpt>
    <trkpt lat="39.1396586" lon="-120.1538658"><ele>1900.92</ele></trkpt>
    <trkpt lat="39.1396367" lon="-120.1539007"><ele>1900.87</ele></trkpt>
    <trkpt lat="39.1396149" lon="-120.1539637"><ele>1900.93</ele></trkpt>
    <trkpt lat="39.1395910" lon="-120.1540361"><ele>1901.02</ele></trkpt>
    <trkpt lat="39.1395660" lon="-120.1540723"><ele>1901.07</ele></trkpt>
    <trkpt lat="39.1395338" lon="-120.1540871"><ele>1901.12</ele></trkpt>
    <trkpt lat="39.1394922" lon="-120.1540898"><ele>1901.15</ele></trkpt>
    <trkpt lat="39.1394412" lon="-120.1540831"><ele>1901.19</ele></trkpt>
    <trkpt lat="39.1393580" lon="-120.1540656"><ele>1901.25</ele></trkpt>
    <trkpt lat="39.1392421" lon="-120.1540534"><ele>1901.36</ele></trkpt>
    <trkpt lat="39.1390861" lon="-120.1540480"><ele>1901.52</ele></trkpt>
    <trkpt lat="39.1388698" lon="-120.1540445"><ele>1901.66</ele></trkpt>
    <trkpt lat="39.1387761" lon="-120.1540480"><ele>1901.72</ele></trkpt>
    <trkpt lat="39.1386538" lon="-120.1540616"><ele>1901.82</ele></trkpt>
    <trkpt lat="39.1385955" lon="-120.1540656"><ele>1901.86</ele></trkpt>
    <trkpt lat="39.1385456" lon="-120.1540683"><ele>1901.86</ele></trkpt>
    <trkpt lat="39.1383594" lon="-120.1540858"><ele>1901.88</ele></trkpt>
    <trkpt lat="39.1382502" lon="-120.1541032"><ele>1901.91</ele></trkpt>
    <trkpt lat="39.1381514" lon="-120.1541233"><ele>1901.96</ele></trkpt>
    <trkpt lat="39.1380224" lon="-120.1541582"><ele>1902.13</ele></trkpt>
    <trkpt lat="39.1379919" lon="-120.1541667"><ele>1902.17</ele></trkpt>
    <trkpt lat="39.1378688" lon="-120.1541959"><ele>1902.31</ele></trkpt>
    <trkpt lat="39.1377796" lon="-120.1542259"><ele>1902.43</ele></trkpt>
    <trkpt lat="39.1376994" lon="-120.1542626"><ele>1902.57</ele></trkpt>
    <trkpt lat="39.1376283" lon="-120.1543076"><ele>1902.73</ele></trkpt>
    <trkpt lat="39.1375274" lon="-120.1543643"><ele>1902.94</ele></trkpt>
    <trkpt lat="39.1374175" lon="-120.1544110"><ele>1903.13</ele></trkpt>
    <trkpt lat="39.1373322" lon="-120.1544476"><ele>1903.27</ele></trkpt>
    <trkpt lat="39.1372732" lon="-120.1544728"><ele>1903.41</ele></trkpt>
    <trkpt lat="39.1372365" lon="-120.1544810"><ele>1903.51</ele></trkpt>
    <trkpt lat="39.1371899" lon="-120.1544960"><ele>1903.63</ele></trkpt>
    <trkpt lat="39.1371162" lon="-120.1545277"><ele>1903.84</ele></trkpt>
    <trkpt lat="39.1370515" lon="-120.1545610"><ele>1904.03</ele></trkpt>
    <trkpt lat="39.1369838" lon="-120.1545969"><ele>1904.21</ele></trkpt>
    <trkpt lat="39.1369350" lon="-120.1546113"><ele>1904.33</ele></trkpt>
    <trkpt lat="39.1368455" lon="-120.1546515"><ele>1904.49</ele></trkpt>
    <trkpt lat="39.1366222" lon="-120.1547576"><ele>1904.53</ele></trkpt>
    <trkpt lat="39.1364579" lon="-120.1548328"><ele>1904.59</ele></trkpt>
    <trkpt lat="39.1362998" lon="-120.1549239"><ele>1904.79</ele></trkpt>
    <trkpt lat="39.1361999" lon="-120.1549776"><ele>1904.90</ele></trkpt>
    <trkpt lat="39.1361167" lon="-120.1550151"><ele>1904.96</ele></trkpt>
    <trkpt lat="39.1360338" lon="-120.1550428"><ele>1905.01</ele></trkpt>
    <trkpt lat="39.1359614" lon="-120.1550712"><ele>1905.15</ele></trkpt>
    <trkpt lat="39.1359148" lon="-120.1550995"><ele>1905.29</ele></trkpt>
    <trkpt lat="39.1358670" lon="-120.1551379"><ele>1905.45</ele></trkpt>
    <trkpt lat="39.1358243" lon="-120.1551729"><ele>1905.61</ele></trkpt>
    <trkpt lat="39.1357830" lon="-120.1551964"><ele>1905.75</ele></trkpt>
    <trkpt lat="39.1357687" lon="-120.1552046"><ele>1905.80</ele></trkpt>
    <trkpt lat="39.1357325" lon="-120.1552312"><ele>1905.94</ele></trkpt>
    <trkpt lat="39.1357209" lon="-120.1552546"><ele>1906.02</ele></trkpt>
    <trkpt lat="39.1357209" lon="-120.1552796"><ele>1906.07</ele></trkpt>
    <trkpt lat="39.1357349" lon="-120.1553242"><ele>1906.12</ele></trkpt>
    <trkpt lat="39.1357521" lon="-120.1553786"><ele>1906.17</ele></trkpt>
    <trkpt lat="39.1357526" lon="-120.1554222"><ele>1906.25</ele></trkpt>
    <trkpt lat="39.1357469" lon="-120.1554450"><ele>1906.32</ele></trkpt>
    <trkpt lat="39.1357297" lon="-120.1554611"><ele>1906.43</ele></trkpt>
    <trkpt lat="39.1356117" lon="-120.1555201"><ele>1907.13</ele></trkpt>
    <trkpt lat="39.1355862" lon="-120.1555435"><ele>1907.33</ele></trkpt>
    <trkpt lat="39.1355675" lon="-120.1555730"><ele>1907.38</ele></trkpt>
    <trkpt lat="39.1355586" lon="-120.1556099"><ele>1907.47</ele></trkpt>
    <trkpt lat="39.1355534" lon="-120.1556837"><ele>1907.67</ele></trkpt>
    <trkpt lat="39.1355472" lon="-120.1557333"><ele>1907.79</ele></trkpt>
    <trkpt lat="39.1355404" lon="-120.1557635"><ele>1907.85</ele></trkpt>
    <trkpt lat="39.1355238" lon="-120.1557876"><ele>1907.84</ele></trkpt>
    <trkpt lat="39.1354926" lon="-120.1558165"><ele>1907.78</ele></trkpt>
    <trkpt lat="39.1354307" lon="-120.1558527"><ele>1907.56</ele></trkpt>
    <trkpt lat="39.1353880" lon="-120.1558862"><ele>1907.39</ele></trkpt>
    <trkpt lat="39.1353318" lon="-120.1559519"><ele>1907.15</ele></trkpt>
    <trkpt lat="39.1352778" lon="-120.1560123"><ele>1906.84</ele></trkpt>
    <trkpt lat="39.1352361" lon="-120.1560458"><ele>1906.57</ele></trkpt>
    <trkpt lat="39.1351893" lon="-120.1560619"><ele>1906.30</ele></trkpt>
    <trkpt lat="39.1351415" lon="-120.1560672"><ele>1906.16</ele></trkpt>
    <trkpt lat="39.1350936" lon="-120.1560552"><ele>1906.19</ele></trkpt>
    <trkpt lat="39.1350333" lon="-120.1560257"><ele>1906.36</ele></trkpt>
    <trkpt lat="39.1349740" lon="-120.1560015"><ele>1906.52</ele></trkpt>
    <trkpt lat="39.1349064" lon="-120.1559814"><ele>1906.67</ele></trkpt>
    <trkpt lat="39.1348669" lon="-120.1559734"><ele>1906.76</ele></trkpt>
    <trkpt lat="39.1348336" lon="-120.1559774"><ele>1906.83</ele></trkpt>
    <trkpt lat="39.1348034" lon="-120.1559935"><ele>1906.92</ele></trkpt>
    <trkpt lat="39.1347545" lon="-120.1560257"><ele>1907.07</ele></trkpt>
    <trkpt lat="39.1347087" lon="-120.1560713"><ele>1907.18</ele></trkpt>
    <trkpt lat="39.1346572" lon="-120.1561430"><ele>1907.23</ele></trkpt>
    <trkpt lat="39.1346167" lon="-120.1562060"><ele>1907.28</ele></trkpt>
    <trkpt lat="39.1345865" lon="-120.1562355"><ele>1907.32</ele></trkpt>
    <trkpt lat="39.1345511" lon="-120.1562570"><ele>1907.36</ele></trkpt>
    <trkpt lat="39.1344918" lon="-120.1562892"><ele>1907.42</ele></trkpt>
    <trkpt lat="39.1344658" lon="-120.1563066"><ele>1907.46</ele></trkpt>
    <trkpt lat="39.1344440" lon="-120.1563321"><ele>1907.51</ele></trkpt>
    <trkpt lat="39.1344180" lon="-120.1563710"><ele>1907.57</ele></trkpt>
    <trkpt lat="39.1343868" lon="-120.1563858"><ele>1907.62</ele></trkpt>
    <trkpt lat="39.1343587" lon="-120.1563871"><ele>1907.64</ele></trkpt>
    <trkpt lat="39.1343296" lon="-120.1563831"><ele>1907.67</ele></trkpt>
    <trkpt lat="39.1342942" lon="-120.1563925"><ele>1907.71</ele></trkpt>
    <trkpt lat="39.1342401" lon="-120.1564206"><ele>1907.71</ele></trkpt>
    <trkpt lat="39.1341771" lon="-120.1564469"><ele>1907.70</ele></trkpt>
    <trkpt lat="39.1340955" lon="-120.1564877"><ele>1907.70</ele></trkpt>
    <trkpt lat="39.1340300" lon="-120.1565252"><ele>1907.73</ele></trkpt>
    <trkpt lat="39.1339696" lon="-120.1565547"><ele>1907.74</ele></trkpt>
    <trkpt lat="39.1339124" lon="-120.1565869"><ele>1907.76</ele></trkpt>
    <trkpt lat="39.1338230" lon="-120.1566473"><ele>1907.79</ele></trkpt>
    <trkpt lat="39.1337273" lon="-120.1567237"><ele>1907.81</ele></trkpt>
    <trkpt lat="39.1336591" lon="-120.1567767"><ele>1907.81</ele></trkpt>
    <trkpt lat="39.1335899" lon="-120.1568411"><ele>1907.82</ele></trkpt>
    <trkpt lat="39.1335502" lon="-120.1568779"><ele>1907.83</ele></trkpt>
    <trkpt lat="39.1335270" lon="-120.1568994"><ele>1907.83</ele></trkpt>
    <trkpt lat="39.1334838" lon="-120.1569356"><ele>1907.82</ele></trkpt>
    <trkpt lat="39.1334230" lon="-120.1569799"><ele>1907.78</ele></trkpt>
    <trkpt lat="39.1333382" lon="-120.1570474"><ele>1907.74</ele></trkpt>
    <trkpt lat="39.1332529" lon="-120.1571153"><ele>1907.71</ele></trkpt>
    <trkpt lat="39.1332024" lon="-120.1571576"><ele>1907.69</ele></trkpt>
    <trkpt lat="39.1331078" lon="-120.1572394"><ele>1907.66</ele></trkpt>
    <trkpt lat="39.1330787" lon="-120.1572709"><ele>1907.66</ele></trkpt>
    <trkpt lat="39.1330532" lon="-120.1573057"><ele>1907.67</ele></trkpt>
    <trkpt lat="39.1330214" lon="-120.1573500"><ele>1907.67</ele></trkpt>
    <trkpt lat="39.1329881" lon="-120.1573842"><ele>1907.51</ele></trkpt>
    <trkpt lat="39.1329491" lon="-120.1574016"><ele>1907.27</ele></trkpt>
    <trkpt lat="39.1328950" lon="-120.1574251"><ele>1906.98</ele></trkpt>
    <trkpt lat="39.1328623" lon="-120.1574486"><ele>1906.83</ele></trkpt>
    <trkpt lat="39.1328347" lon="-120.1574781"><ele>1906.74</ele></trkpt>
    <trkpt lat="39.1328030" lon="-120.1575203"><ele>1906.67</ele></trkpt>
    <trkpt lat="39.1327750" lon="-120.1575577"><ele>1906.65</ele></trkpt>
    <trkpt lat="39.1325913" lon="-120.1577436"><ele>1906.91</ele></trkpt>
    <trkpt lat="39.1325655" lon="-120.1577830"><ele>1907.06</ele></trkpt>
    <trkpt lat="39.1325372" lon="-120.1578234"><ele>1907.17</ele></trkpt>
    <trkpt lat="39.1324841" lon="-120.1578958"><ele>1907.36</ele></trkpt>
    <trkpt lat="39.1323687" lon="-120.1580286"><ele>1907.62</ele></trkpt>
    <trkpt lat="39.1322813" lon="-120.1581346"><ele>1907.81</ele></trkpt>
    <trkpt lat="39.1322427" lon="-120.1581640"><ele>1907.83</ele></trkpt>
    <trkpt lat="39.1320565" lon="-120.1583807"><ele>1907.65</ele></trkpt>
    <trkpt lat="39.1317836" lon="-120.1586561"><ele>1907.07</ele></trkpt>
    <trkpt lat="39.1314959" lon="-120.1589551"><ele>1906.24</ele></trkpt>
    <trkpt lat="39.1312676" lon="-120.1591898"><ele>1905.54</ele></trkpt>
    <trkpt lat="39.1310221" lon="-120.1594473"><ele>1904.87</ele></trkpt>
    <trkpt lat="39.1308037" lon="-120.1596673"><ele>1904.18</ele></trkpt>
    <trkpt lat="39.1305332" lon="-120.1599516"><ele>1903.45</ele></trkpt>
    <trkpt lat="39.1303875" lon="-120.1600964"><ele>1903.31</ele></trkpt>
    <trkpt lat="39.1302606" lon="-120.1602300"><ele>1903.12</ele></trkpt>
    <trkpt lat="39.1301384" lon="-120.1603655"><ele>1902.95</ele></trkpt>
    <trkpt lat="39.1300406" lon="-120.1604729"><ele>1902.82</ele></trkpt>
    <trkpt lat="39.1299455" lon="-120.1605710"><ele>1902.75</ele></trkpt>
    <trkpt lat="39.1298604" lon="-120.1606527"><ele>1902.74</ele></trkpt>
    <trkpt lat="39.1297834" lon="-120.1607356"><ele>1902.76</ele></trkpt>
    <trkpt lat="39.1296635" lon="-120.1608743"><ele>1902.89</ele></trkpt>
    <trkpt lat="39.1295624" lon="-120.1609959"><ele>1903.01</ele></trkpt>
    <trkpt lat="39.1295126" lon="-120.1610496"><ele>1903.01</ele></trkpt>
    <trkpt lat="39.1294383" lon="-120.1611185"><ele>1902.97</ele></trkpt>
    <trkpt lat="39.1293378" lon="-120.1612096"><ele>1902.87</ele></trkpt>
    <trkpt lat="39.1292427" lon="-120.1612995"><ele>1902.95</ele></trkpt>
    <trkpt lat="39.1291376" lon="-120.1613882"><ele>1902.96</ele></trkpt>
    <trkpt lat="39.1290299" lon="-120.1614641"><ele>1903.04</ele></trkpt>
    <trkpt lat="39.1289167" lon="-120.1615353"><ele>1903.06</ele></trkpt>
    <trkpt lat="39.1288351" lon="-120.1615886"><ele>1903.04</ele></trkpt>
    <trkpt lat="39.1287663" lon="-120.1616299"><ele>1903.00</ele></trkpt>
    <trkpt lat="39.1287192" lon="-120.1616532"><ele>1902.99</ele></trkpt>
    <trkpt lat="39.1286839" lon="-120.1616591"><ele>1903.00</ele></trkpt>
    <trkpt lat="39.1286386" lon="-120.1616567"><ele>1902.96</ele></trkpt>
    <trkpt lat="39.1285634" lon="-120.1616462"><ele>1902.88</ele></trkpt>
    <trkpt lat="39.1285001" lon="-120.1616462"><ele>1902.85</ele></trkpt>
    <trkpt lat="39.1284222" lon="-120.1616661"><ele>1902.91</ele></trkpt>
    <trkpt lat="39.1283696" lon="-120.1616906"><ele>1902.99</ele></trkpt>
    <trkpt lat="39.1283135" lon="-120.1617244"><ele>1903.10</ele></trkpt>
    <trkpt lat="39.1282619" lon="-120.1617665"><ele>1903.21</ele></trkpt>
    <trkpt lat="39.1282356" lon="-120.1617887"><ele>1903.26</ele></trkpt>
    <trkpt lat="39.1281967" lon="-120.1618050"><ele>1903.27</ele></trkpt>
    <trkpt lat="39.1281269" lon="-120.1618260"><ele>1903.26</ele></trkpt>
    <trkpt lat="39.1280807" lon="-120.1618412"><ele>1903.25</ele></trkpt>
    <trkpt lat="39.1280418" lon="-120.1618634"><ele>1903.29</ele></trkpt>
    <trkpt lat="39.1279983" lon="-120.1618961"><ele>1903.36</ele></trkpt>
    <trkpt lat="39.1279494" lon="-120.1619439"><ele>1903.49</ele></trkpt>
    <trkpt lat="39.1279250" lon="-120.1619696"><ele>1903.56</ele></trkpt>
    <trkpt lat="39.1279005" lon="-120.1619755"><ele>1903.55</ele></trkpt>
    <trkpt lat="39.1278742" lon="-120.1619579"><ele>1903.45</ele></trkpt>
    <trkpt lat="39.1278507" lon="-120.1619124"><ele>1903.22</ele></trkpt>
    <trkpt lat="39.1278354" lon="-120.1618562"><ele>1902.96</ele></trkpt>
    <trkpt lat="39.1278058" lon="-120.1618132"><ele>1902.73</ele></trkpt>
    <trkpt lat="39.1277746" lon="-120.1617984"><ele>1902.61</ele></trkpt>
    <trkpt lat="39.1277133" lon="-120.1618186"><ele>1902.58</ele></trkpt>
    <trkpt lat="39.1276342" lon="-120.1618427"><ele>1902.52</ele></trkpt>
    <trkpt lat="39.1273731" lon="-120.1619527"><ele>1902.46</ele></trkpt>
    <trkpt lat="39.1271452" lon="-120.1620707"><ele>1902.54</ele></trkpt>
    <trkpt lat="39.1267280" lon="-120.1622598"><ele>1903.54</ele></trkpt>
    <trkpt lat="39.1264259" lon="-120.1623978"><ele>1903.59</ele></trkpt>
    <trkpt lat="39.1261970" lon="-120.1625158"><ele>1903.65</ele></trkpt>
    <trkpt lat="39.1258475" lon="-120.1626338"><ele>1903.84</ele></trkpt>
    <trkpt lat="39.1255624" lon="-120.1626553"><ele>1903.87</ele></trkpt>
    <trkpt lat="39.1253502" lon="-120.1626284"><ele>1903.94</ele></trkpt>
    <trkpt lat="39.1250776" lon="-120.1625641"><ele>1903.40</ele></trkpt>
    <trkpt lat="39.1246490" lon="-120.1623897"><ele>1902.22</ele></trkpt>
    <trkpt lat="39.1239352" lon="-120.1620544"><ele>1901.30</ele></trkpt>
    <trkpt lat="39.1237667" lon="-120.1619337"><ele>1900.96</ele></trkpt>
    <trkpt lat="39.1235482" lon="-120.1618425"><ele>1900.72</ele></trkpt>
    <trkpt lat="39.1234067" lon="-120.1617594"><ele>1900.53</ele></trkpt>
    <trkpt lat="39.1233068" lon="-120.1616897"><ele>1900.31</ele></trkpt>
    <trkpt lat="39.1232153" lon="-120.1616655"><ele>1900.26</ele></trkpt>
    <trkpt lat="39.1230904" lon="-120.1616602"><ele>1900.31</ele></trkpt>
    <trkpt lat="39.1229552" lon="-120.1616575"><ele>1900.41</ele></trkpt>
    <trkpt lat="39.1227721" lon="-120.1616280"><ele>1900.40</ele></trkpt>
    <trkpt lat="39.1226389" lon="-120.1616065"><ele>1900.38</ele></trkpt>
    <trkpt lat="39.1225120" lon="-120.1615904"><ele>1900.39</ele></trkpt>
    <trkpt lat="39.1223517" lon="-120.1615743"><ele>1900.42</ele></trkpt>
    <trkpt lat="39.1221270" lon="-120.1615395"><ele>1900.46</ele></trkpt>
    <trkpt lat="39.1218710" lon="-120.1615180"><ele>1900.69</ele></trkpt>
    <trkpt lat="39.1217171" lon="-120.1614670"><ele>1900.54</ele></trkpt>
    <trkpt lat="39.1215693" lon="-120.1614241"><ele>1900.48</ele></trkpt>
    <trkpt lat="39.1214112" lon="-120.1614053"><ele>1900.63</ele></trkpt>
    <trkpt lat="39.1212031" lon="-120.1613517"><ele>1900.83</ele></trkpt>
    <trkpt lat="39.1209742" lon="-120.1612954"><ele>1901.11</ele></trkpt>
    <trkpt lat="39.1207807" lon="-120.1612391"><ele>1901.29</ele></trkpt>
    <trkpt lat="39.1205851" lon="-120.1611479"><ele>1901.09</ele></trkpt>
    <trkpt lat="39.1203243" lon="-120.1610206"><ele>1900.84</ele></trkpt>
    <trkpt lat="39.1200715" lon="-120.1609120"><ele>1900.80</ele></trkpt>
    <trkpt lat="39.1199279" lon="-120.1608503"><ele>1900.84</ele></trkpt>
    <trkpt lat="39.1198270" lon="-120.1608114"><ele>1900.94</ele></trkpt>
    <trkpt lat="39.1197562" lon="-120.1607752"><ele>1900.97</ele></trkpt>
    <trkpt lat="39.1196959" lon="-120.1607376"><ele>1900.91</ele></trkpt>
    <trkpt lat="39.1196553" lon="-120.1607242"><ele>1900.95</ele></trkpt>
    <trkpt lat="39.1196189" lon="-120.1607229"><ele>1901.06</ele></trkpt>
    <trkpt lat="39.1195783" lon="-120.1607202"><ele>1901.18</ele></trkpt>
    <trkpt lat="39.1195242" lon="-120.1606987"><ele>1901.21</ele></trkpt>
    <trkpt lat="39.1194836" lon="-120.1606759"><ele>1901.19</ele></trkpt>
    <trkpt lat="39.1194357" lon="-120.1606424"><ele>1901.12</ele></trkpt>
    <trkpt lat="39.1193504" lon="-120.1605995"><ele>1901.12</ele></trkpt>
    <trkpt lat="39.1192193" lon="-120.1605445"><ele>1901.26</ele></trkpt>
    <trkpt lat="39.1191236" lon="-120.1604962"><ele>1901.37</ele></trkpt>
    <trkpt lat="39.1188433" lon="-120.1603083"><ele>1901.31</ele></trkpt>
    <trkpt lat="39.1186519" lon="-120.1601447"><ele>1901.36</ele></trkpt>
    <trkpt lat="39.1185000" lon="-120.1599784"><ele>1901.39</ele></trkpt>
    <trkpt lat="39.1183480" lon="-120.1597933"><ele>1901.63</ele></trkpt>
    <trkpt lat="39.1182502" lon="-120.1595922"><ele>1902.06</ele></trkpt>
    <trkpt lat="39.1181066" lon="-120.1592542"><ele>1902.69</ele></trkpt>
    <trkpt lat="39.1180546" lon="-120.1591067"><ele>1902.43</ele></trkpt>
    <trkpt lat="39.1180567" lon="-120.1589538"><ele>1901.60</ele></trkpt>
    <trkpt lat="39.1180567" lon="-120.1588465"><ele>1901.11</ele></trkpt>
    <trkpt lat="39.1180234" lon="-120.1587312"><ele>1900.84</ele></trkpt>
    <trkpt lat="39.1179547" lon="-120.1586212"><ele>1900.79</ele></trkpt>
    <trkpt lat="39.1178236" lon="-120.1584308"><ele>1900.68</ele></trkpt>
    <trkpt lat="39.1177009" lon="-120.1583691"><ele>1900.88</ele></trkpt>
    <trkpt lat="39.1175531" lon="-120.1583047"><ele>1900.88</ele></trkpt>
    <trkpt lat="39.1173679" lon="-120.1582377"><ele>1900.40</ele></trkpt>
    <trkpt lat="39.1172763" lon="-120.1582350"><ele>1900.53</ele></trkpt>
    <trkpt lat="39.1171702" lon="-120.1582940"><ele>1901.65</ele></trkpt>
    <trkpt lat="39.1170266" lon="-120.1583289"><ele>1902.04</ele></trkpt>
    <trkpt lat="39.1168643" lon="-120.1583342"><ele>1901.50</ele></trkpt>
    <trkpt lat="39.1167165" lon="-120.1583637"><ele>1901.37</ele></trkpt>
    <trkpt lat="39.1164793" lon="-120.1584040"><ele>1901.23</ele></trkpt>
    <trkpt lat="39.1162525" lon="-120.1583986"><ele>1900.52</ele></trkpt>
    <trkpt lat="39.1161214" lon="-120.1583905"><ele>1900.36</ele></trkpt>
    <trkpt lat="39.1160194" lon="-120.1584415"><ele>1900.81</ele></trkpt>
    <trkpt lat="39.1159486" lon="-120.1584549"><ele>1900.90</ele></trkpt>
    <trkpt lat="39.1157093" lon="-120.1584603"><ele>1901.01</ele></trkpt>
    <trkpt lat="39.1154804" lon="-120.1584227"><ele>1900.96</ele></trkpt>
    <trkpt lat="39.1153909" lon="-120.1583982"><ele>1900.84</ele></trkpt>
    <trkpt lat="39.1152744" lon="-120.1583664"><ele>1900.96</ele></trkpt>
    <trkpt lat="39.1148831" lon="-120.1582484"><ele>1901.12</ele></trkpt>
    <trkpt lat="39.1147375" lon="-120.1581787"><ele>1900.89</ele></trkpt>
    <trkpt lat="39.1145525" lon="-120.1581074"><ele>1900.79</ele></trkpt>
    <trkpt lat="39.1145356" lon="-120.1581009"><ele>1900.77</ele></trkpt>
    <trkpt lat="39.1142380" lon="-120.1579855"><ele>1900.69</ele></trkpt>
    <trkpt lat="39.1140403" lon="-120.1579426"><ele>1900.78</ele></trkpt>
    <trkpt lat="39.1139050" lon="-120.1579373"><ele>1900.95</ele></trkpt>
    <trkpt lat="39.1137781" lon="-120.1579560"><ele>1901.28</ele></trkpt>
    <trkpt lat="39.1136012" lon="-120.1579694"><ele>1901.37</ele></trkpt>
    <trkpt lat="39.1134451" lon="-120.1579936"><ele>1901.17</ele></trkpt>
    <trkpt lat="39.1132536" lon="-120.1580472"><ele>1900.93</ele></trkpt>
    <trkpt lat="39.1131267" lon="-120.1580740"><ele>1900.87</ele></trkpt>
    <trkpt lat="39.1130289" lon="-120.1580740"><ele>1900.79</ele></trkpt>
    <trkpt lat="39.1129061" lon="-120.1581196"><ele>1900.87</ele></trkpt>
    <trkpt lat="39.1127313" lon="-120.1582377"><ele>1901.12</ele></trkpt>
    <trkpt lat="39.1125922" lon="-120.1581895"><ele>1900.50</ele></trkpt>
    <trkpt lat="39.1124965" lon="-120.1582271"><ele>1900.41</ele></trkpt>
    <trkpt lat="39.1124112" lon="-120.1582432"><ele>1900.25</ele></trkpt>
    <trkpt lat="39.1123695" lon="-120.1582727"><ele>1900.29</ele></trkpt>
    <trkpt lat="39.1123269" lon="-120.1583317"><ele>1900.49</ele></trkpt>
    <trkpt lat="39.1122748" lon="-120.1583719"><ele>1900.57</ele></trkpt>
    <trkpt lat="39.1122291" lon="-120.1583827"><ele>1900.52</ele></trkpt>
    <trkpt lat="39.1121666" lon="-120.1583934"><ele>1900.43</ele></trkpt>
    <trkpt lat="39.1121229" lon="-120.1584229"><ele>1900.49</ele></trkpt>
    <trkpt lat="39.1120834" lon="-120.1584926"><ele>1900.78</ele></trkpt>
    <trkpt lat="39.1120522" lon="-120.1585624"><ele>1901.10</ele></trkpt>
    <trkpt lat="39.1120001" lon="-120.1586106"><ele>1901.26</ele></trkpt>
    <trkpt lat="39.1119315" lon="-120.1586375"><ele>1901.28</ele></trkpt>
    <trkpt lat="39.1118440" lon="-120.1586938"><ele>1901.48</ele></trkpt>
    <trkpt lat="39.1116526" lon="-120.1588333"><ele>1902.08</ele></trkpt>
    <trkpt lat="39.1115943" lon="-120.1588896"><ele>1902.35</ele></trkpt>
    <trkpt lat="39.1115360" lon="-120.1589701"><ele>1902.80</ele></trkpt>
    <trkpt lat="39.1114986" lon="-120.1590183"><ele>1902.99</ele></trkpt>
    <trkpt lat="39.1113862" lon="-120.1591122"><ele>1903.32</ele></trkpt>
    <trkpt lat="39.1113258" lon="-120.1591766"><ele>1903.71</ele></trkpt>
    <trkpt lat="39.1112634" lon="-120.1592731"><ele>1904.38</ele></trkpt>
    <trkpt lat="39.1112134" lon="-120.1593590"><ele>1904.97</ele></trkpt>
    <trkpt lat="39.1111656" lon="-120.1594394"><ele>1905.48</ele></trkpt>
    <trkpt lat="39.1111240" lon="-120.1594770"><ele>1905.59</ele></trkpt>
    <trkpt lat="39.1110946" lon="-120.1595047"><ele>1905.68</ele></trkpt>
    <trkpt lat="39.1109165" lon="-120.1596726"><ele>1906.65</ele></trkpt>
    <trkpt lat="39.1108559" lon="-120.1597311"><ele>1906.88</ele></trkpt>
    <trkpt lat="39.1105689" lon="-120.1600079"><ele>1907.62</ele></trkpt>
    <trkpt lat="39.1105109" lon="-120.1600762"><ele>1907.86</ele></trkpt>
    <trkpt lat="39.1104458" lon="-120.1601527"><ele>1907.93</ele></trkpt>
    <trkpt lat="39.1103067" lon="-120.1603164"><ele>1907.32</ele></trkpt>
    <trkpt lat="39.1101589" lon="-120.1604853"><ele>1906.21</ele></trkpt>
    <trkpt lat="39.1100049" lon="-120.1606221"><ele>1905.80</ele></trkpt>
    <trkpt lat="39.1098072" lon="-120.1607643"><ele>1905.54</ele></trkpt>
    <trkpt lat="39.1096282" lon="-120.1608448"><ele>1906.12</ele></trkpt>
    <trkpt lat="39.1094555" lon="-120.1609011"><ele>1907.27</ele></trkpt>
    <trkpt lat="39.1091537" lon="-120.1609440"><ele>1908.10</ele></trkpt>
    <trkpt lat="39.1085439" lon="-120.1610379"><ele>1905.70</ele></trkpt>
    <trkpt lat="39.1084347" lon="-120.1610535"><ele>1905.16</ele></trkpt>
    <trkpt lat="39.1082358" lon="-120.1610808"><ele>1904.40</ele></trkpt>
    <trkpt lat="39.1081391" lon="-120.1610872"><ele>1903.94</ele></trkpt>
    <trkpt lat="39.1078466" lon="-120.1611237"><ele>1903.52</ele></trkpt>
    <trkpt lat="39.1074741" lon="-120.1611854"><ele>1903.17</ele></trkpt>
    <trkpt lat="39.1072680" lon="-120.1612256"><ele>1902.84</ele></trkpt>
    <trkpt lat="39.1069226" lon="-120.1613115"><ele>1903.24</ele></trkpt>
    <trkpt lat="39.1066624" lon="-120.1614617"><ele>1903.56</ele></trkpt>
    <trkpt lat="39.1063499" lon="-120.1616478"><ele>1903.02</ele></trkpt>
    <trkpt lat="39.1061816" lon="-120.1617379"><ele>1902.70</ele></trkpt>
    <trkpt lat="39.1058236" lon="-120.1619740"><ele>1902.34</ele></trkpt>
    <trkpt lat="39.1055239" lon="-120.1621698"><ele>1902.03</ele></trkpt>
    <trkpt lat="39.1053886" lon="-120.1622422"><ele>1901.99</ele></trkpt>
    <trkpt lat="39.1050847" lon="-120.1623575"><ele>1902.03</ele></trkpt>
    <trkpt lat="39.1049217" lon="-120.1624449"><ele>1901.88</ele></trkpt>
    <trkpt lat="39.1046851" lon="-120.1625721"><ele>1901.78</ele></trkpt>
    <trkpt lat="39.1044437" lon="-120.1626982"><ele>1901.99</ele></trkpt>
    <trkpt lat="39.1042210" lon="-120.1627813"><ele>1902.24</ele></trkpt>
    <trkpt lat="39.1038817" lon="-120.1629127"><ele>1902.79</ele></trkpt>
    <trkpt lat="39.1035383" lon="-120.1630174"><ele>1902.97</ele></trkpt>
    <trkpt lat="39.1032364" lon="-120.1630951"><ele>1902.91</ele></trkpt>
    <trkpt lat="39.1028764" lon="-120.1631488"><ele>1902.66</ele></trkpt>
    <trkpt lat="39.1028449" lon="-120.1631545"><ele>1902.65</ele></trkpt>
    <trkpt lat="39.1024608" lon="-120.1632160"><ele>1902.63</ele></trkpt>
    <trkpt lat="39.1024448" lon="-120.1632305"><ele>1902.65</ele></trkpt>
    <trkpt lat="39.1024441" lon="-120.1632595"><ele>1902.70</ele></trkpt>
    <trkpt lat="39.1024493" lon="-120.1633308"><ele>1902.82</ele></trkpt>
    <trkpt lat="39.1024559" lon="-120.1634097"><ele>1902.93</ele></trkpt>
    <trkpt lat="39.1024426" lon="-120.1634413"><ele>1902.96</ele></trkpt>
    <trkpt lat="39.1024139" lon="-120.1634479"><ele>1902.96</ele></trkpt>
    <trkpt lat="39.1022675" lon="-120.1634680"><ele>1902.96</ele></trkpt>
    <trkpt lat="39.1020063" lon="-120.1634921"><ele>1902.88</ele></trkpt>
    <trkpt lat="39.1017669" lon="-120.1635350"><ele>1902.66</ele></trkpt>
    <trkpt lat="39.1016650" lon="-120.1635431"><ele>1902.55</ele></trkpt>
    <trkpt lat="39.1015088" lon="-120.1635270"><ele>1902.35</ele></trkpt>
    <trkpt lat="39.1012882" lon="-120.1635243"><ele>1902.07</ele></trkpt>
    <trkpt lat="39.1010322" lon="-120.1635511"><ele>1901.82</ele></trkpt>
    <trkpt lat="39.1006076" lon="-120.1635913"><ele>1901.53</ele></trkpt>
    <trkpt lat="39.1005193" lon="-120.1636062"><ele>1901.50</ele></trkpt>
    <trkpt lat="39.1002495" lon="-120.1636423"><ele>1901.29</ele></trkpt>
    <trkpt lat="39.1000081" lon="-120.1636852"><ele>1901.12</ele></trkpt>
    <trkpt lat="39.0997521" lon="-120.1637550"><ele>1901.33</ele></trkpt>
    <trkpt lat="39.0994648" lon="-120.1638220"><ele>1901.46</ele></trkpt>
    <trkpt lat="39.0992671" lon="-120.1638703"><ele>1901.51</ele></trkpt>
    <trkpt lat="39.0990818" lon="-120.1639052"><ele>1901.52</ele></trkpt>
    <trkpt lat="39.0988612" lon="-120.1639615"><ele>1901.47</ele></trkpt>
    <trkpt lat="39.0986759" lon="-120.1639937"><ele>1901.38</ele></trkpt>
    <trkpt lat="39.0983741" lon="-120.1640473"><ele>1901.25</ele></trkpt>
    <trkpt lat="39.0980223" lon="-120.1641090"><ele>1901.33</ele></trkpt>
    <trkpt lat="39.0976476" lon="-120.1641761"><ele>1901.63</ele></trkpt>
    <trkpt lat="39.0973791" lon="-120.1642056"><ele>1901.82</ele></trkpt>
    <trkpt lat="39.0971813" lon="-120.1642351"><ele>1902.01</ele></trkpt>
    <trkpt lat="39.0970210" lon="-120.1642324"><ele>1901.98</ele></trkpt>
    <trkpt lat="39.0968680" lon="-120.1642324"><ele>1901.96</ele></trkpt>
    <trkpt lat="39.0967467" lon="-120.1642299"><ele>1901.94</ele></trkpt>
    <trkpt lat="39.0964695" lon="-120.1641961"><ele>1901.70</ele></trkpt>
    <trkpt lat="39.0962782" lon="-120.1641728"><ele>1901.70</ele></trkpt>
    <trkpt lat="39.0962153" lon="-120.1641651"><ele>1901.71</ele></trkpt>
    <trkpt lat="39.0959571" lon="-120.1641279"><ele>1901.70</ele></trkpt>
    <trkpt lat="39.0959165" lon="-120.1641241"><ele>1901.72</ele></trkpt>
    <trkpt lat="39.0957571" lon="-120.1641054"><ele>1901.79</ele></trkpt>
    <trkpt lat="39.0956404" lon="-120.1640915"><ele>1901.87</ele></trkpt>
    <trkpt lat="39.0955876" lon="-120.1640851"><ele>1901.98</ele></trkpt>
    <trkpt lat="39.0954998" lon="-120.1640851"><ele>1902.26</ele></trkpt>
    <trkpt lat="39.0954400" lon="-120.1640851"><ele>1902.46</ele></trkpt>
    <trkpt lat="39.0953067" lon="-120.1640933"><ele>1902.93</ele></trkpt>
    <trkpt lat="39.0952690" lon="-120.1640980"><ele>1903.08</ele></trkpt>
    <trkpt lat="39.0950229" lon="-120.1641292"><ele>1903.69</ele></trkpt>
    <trkpt lat="39.0948658" lon="-120.1641492"><ele>1904.02</ele></trkpt>
    <trkpt lat="39.0947065" lon="-120.1641685"><ele>1904.35</ele></trkpt>
    <trkpt lat="39.0945739" lon="-120.1641776"><ele>1904.54</ele></trkpt>
    <trkpt lat="39.0943566" lon="-120.1641660"><ele>1904.66</ele></trkpt>
    <trkpt lat="39.0940445" lon="-120.1640594"><ele>1904.62</ele></trkpt>
    <trkpt lat="39.0937897" lon="-120.1639683"><ele>1904.24</ele></trkpt>
    <trkpt lat="39.0937281" lon="-120.1639467"><ele>1904.09</ele></trkpt>
    <trkpt lat="39.0934586" lon="-120.1638398"><ele>1903.26</ele></trkpt>
    <trkpt lat="39.0928746" lon="-120.1636088"><ele>1902.37</ele></trkpt>
    <trkpt lat="39.0924582" lon="-120.1634371"><ele>1902.48</ele></trkpt>
    <trkpt lat="39.0921173" lon="-120.1633335"><ele>1902.93</ele></trkpt>
    <trkpt lat="39.0920710" lon="-120.1633146"><ele>1903.03</ele></trkpt>
    <trkpt lat="39.0920004" lon="-120.1632994"><ele>1903.20</ele></trkpt>
    <trkpt lat="39.0919134" lon="-120.1632725"><ele>1903.39</ele></trkpt>
    <trkpt lat="39.0918363" lon="-120.1632399"><ele>1903.54</ele></trkpt>
    <trkpt lat="39.0917602" lon="-120.1632002"><ele>1903.66</ele></trkpt>
    <trkpt lat="39.0914523" lon="-120.1630655"><ele>1904.14</ele></trkpt>
    <trkpt lat="39.0911573" lon="-120.1629330"><ele>1904.54</ele></trkpt>
    <trkpt lat="39.0910314" lon="-120.1628767"><ele>1904.72</ele></trkpt>
    <trkpt lat="39.0908285" lon="-120.1627712"><ele>1904.86</ele></trkpt>
    <trkpt lat="39.0906648" lon="-120.1626930"><ele>1904.98</ele></trkpt>
    <trkpt lat="39.0896440" lon="-120.1621885"><ele>1904.25</ele></trkpt>
    <trkpt lat="39.0895991" lon="-120.1621793"><ele>1904.20</ele></trkpt>
    <trkpt lat="39.0895470" lon="-120.1621833"><ele>1904.19</ele></trkpt>
    <trkpt lat="39.0895148" lon="-120.1622504"><ele>1904.54</ele></trkpt>
    <trkpt lat="39.0895241" lon="-120.1625749"><ele>1906.29</ele></trkpt>
    <trkpt lat="39.0895210" lon="-120.1626393"><ele>1906.63</ele></trkpt>
    <trkpt lat="39.0894877" lon="-120.1626836"><ele>1906.80</ele></trkpt>
    <trkpt lat="39.0894429" lon="-120.1627117"><ele>1906.87</ele></trkpt>
    <trkpt lat="39.0893838" lon="-120.1627306"><ele>1906.87</ele></trkpt>
  </trkseg></trk>
</gpx>
